{"type":"FeatureCollection","features":[{"type":"Feature","geometry":{"type":"Polygon","coordinates":[[[120.56597798700011,16.434366545000046],[120.56150318700008,16.434330440000053],[120.56006122300005,16.434356061000074],[120.55648570500011,16.434315825000056],[120.55573058300001,16.434291982000047],[120.54516024500003,16.43451933800003],[120.54378431100008,16.42979103500005],[120.54399629000011,16.428991491000033],[120.54426187700005,16.428393922000055],[120.54614144700008,16.426374747000068],[120.54710217700006,16.425120863000075],[120.54787658800001,16.423809644000073],[120.54805327000008,16.423409847000073],[120.54903436300003,16.421801266000045],[120.5503880650001,16.419294828000034],[120.55105906400001,16.418336258000068],[120.5514733010001,16.417998873000045],[120.55178899200007,16.417681349000077],[120.5519120780001,16.417256142000042],[120.5521526550001,16.416640710000024],[120.55230931100004,16.416293831000075],[120.55248275000008,16.416036469000062],[120.55252325000004,16.41589676500007],[120.55260426900008,16.415727682000067],[120.55250681600012,16.415251941000065],[120.55271158100004,16.414627805000066],[120.5530961390001,16.41322330400004],[120.55391690500005,16.41217318100007],[120.55440907100001,16.411510399000065],[120.55567583900006,16.409802315000036],[120.55692564300011,16.408159150000074],[120.55779010700007,16.408160687000077],[120.55746059500007,16.40888336000006],[120.55773819500007,16.40926318100003],[120.55842296500009,16.40974158800003],[120.55900961900011,16.40974488300003],[120.55904836600007,16.409565962000045],[120.55910814800006,16.409355462000065],[120.559230135,16.409317927000075],[120.55942938200008,16.40922464600004],[120.559727468,16.40939768800007],[120.55979784600004,16.409430531000055],[120.56004182000004,16.409430531000055],[120.5602248020001,16.40945399000003],[120.56037963200004,16.409458682000036],[120.56047511200006,16.409506118000024],[120.56049717700012,16.409387295000045],[120.56066000200008,16.40930045500005],[120.56079568900009,16.409289600000022],[120.56089338400011,16.409338448000028],[120.56088159000001,16.40952487800007],[120.56108219800001,16.409505769000077],[120.56124536700008,16.409490480000045],[120.5612739820001,16.409553282000047],[120.56139178400008,16.40953703400004],[120.56139641100003,16.409483598000065],[120.56162708200009,16.409436095000046],[120.56181617800007,16.409412712000062],[120.56203435700002,16.409384628000055],[120.56231059100003,16.409283550000055],[120.56247964200008,16.409232497000062],[120.56254345500008,16.409215225000025],[120.56271713700005,16.409403911000027],[120.5630059560001,16.40978900400006],[120.56305779600007,16.40984084300004],[120.56316881600003,16.409771094000064],[120.56339796400005,16.409694711000043],[120.56412614500005,16.409552130000066],[120.56454370300003,16.40953176200003],[120.56473720600002,16.409536854000066],[120.56501474000004,16.409590285000036],[120.56522262200008,16.409649184000045],[120.56542703900004,16.409735802000057],[120.56551712100008,16.40978084300002],[120.56563492100008,16.409822419000022],[120.5657388620001,16.409815490000028],[120.56585319700002,16.409773914000027],[120.56600564400003,16.40968036700002],[120.56619620200001,16.40955910200006],[120.56635904300003,16.40951752600006],[120.56660503700004,16.40951752600006],[120.56679906000011,16.409545243000025],[120.56700347700007,16.409604143000024],[120.56760633500005,16.40986399600007],[120.5681087160001,16.410037231000047],[120.56903379100004,16.410435671000073],[120.56933868500005,16.410574259000043],[120.56977523700004,16.41075095900004],[120.57040927700007,16.411125147000064],[120.57085968800004,16.411388464000026],[120.57145908100006,16.41172107500006],[120.57193486500012,16.411969249000038],[120.57290732600006,16.412483309000038],[120.57326072500007,16.412736232000043],[120.57382873300003,16.41305833900003],[120.57403825200004,16.413149668000074],[120.57412683100006,16.413182939000023],[120.57406013800005,16.413215422000064],[120.57391912300011,16.413203863000035],[120.5737665480001,16.413162252000063],[120.57360703800009,16.413113706000047],[120.5734914520001,16.413092900000038],[120.57347758100002,16.413134511000067],[120.57352150400004,16.41317843400003],[120.57360472700009,16.413224669000044],[120.57373649600004,16.413287086000025],[120.57382896500008,16.413307891000045],[120.5739283690001,16.41333332100004],[120.5739792280001,16.413370308000026],[120.5739838510001,16.41340960800005],[120.57396304500003,16.41343734900005],[120.57389831700004,16.41343734900005],[120.57372724900006,16.41335643800005],[120.57363516100008,16.41333022200007],[120.57323132500005,16.41389844300005],[120.57330031800007,16.414016718000028],[120.57320175600012,16.414179346000026],[120.57293563700011,16.414598237000064],[120.5723180330001,16.415131167000027],[120.57197269100004,16.41570426800007],[120.5718863300001,16.415779834000034],[120.57179277300008,16.415974146000053],[120.57157484300001,16.41596178800006],[120.57149723500004,16.41597856800007],[120.57118051200007,16.416190416000063],[120.5710294910001,16.41627012200007],[120.57091203100003,16.41636031400003],[120.57075891300008,16.416425337000078],[120.57062467300011,16.416435825000065],[120.57064250000008,16.41670204600007],[120.57061049800006,16.416994061000025],[120.57051849400011,16.41707006400003],[120.57047145700005,16.417237597000053],[120.57058361700001,16.417362851000064],[120.57076779400006,16.417643946000055],[120.5709199040001,16.41766950300007],[120.57106022300002,16.417661139000074],[120.57130450700004,16.41767162900004],[120.57154676200003,16.417758220000053],[120.57149960700008,16.418350278000048],[120.57130770900005,16.418785741000022],[120.57048379100002,16.420863084000075],[120.5694416340001,16.424712536000072],[120.56887250000011,16.42681490800004],[120.56853676600008,16.42783632800007],[120.56746595400011,16.430572718000064],[120.56597798700011,16.434366545000046]]]},"properties":{"brgy_name":"Irisan","psgc_10d":"1430300050","city_name":"Baguio City","prov_name":"Benguet","urban_rural2015":"U"}}]}
